0 NSS 9
1 33749U 09008A   19036.23731625  .00000065  00000-0  00000+0 0  9991
2 33749   0.0230 318.8512 0001851 356.2260  88.5267  1.00270265 36604
0 EUTE HOT BIRD 13D (HB10)
1 33750U 09008B   19035.79327030 +.00000149 +00000-0 +00000-0 0  9998
2 33750 000.0519 347.7489 0003758 326.9537 138.6239 01.00278469036485
0 EUTE HOT BIRD 13D (HB10)
1 33750U 09008B   19036.49007610  .00000150  00000-0  00000+0 0  9996
2 33750   0.0517 349.3318 0003759 325.7901  29.7582  1.00278785 36645
0 SPIRALE A
1 33751U 09008C   19035.82870321 +.00000050 +00000-0 +21099-3 0  9994
2 33751 002.0714 317.4953 5428493 126.0088 297.6227 04.58699219138388
0 SPIRALE B
1 33752U 09008D   19036.60236730  .00006171  00000-0  11057-2 0  9994
2 33752   2.1193  45.5297 6940806 296.3296   9.8587  2.72893003 91102
0 ARIANE 5 R/B
1 33754U 09008F   19035.90219857  .00000022  00000-0  63040-4 0  9999
2 33754   1.8886 164.4946 7176510  51.6304 353.0826  2.38715243 84964
0 ARIANE 5 R/B
1 33754U 09008F   19035.48336054 +.00000028 +00000-0 +65636-4 0  9990
2 33754 001.8891 164.6952 7176446 051.2499 353.1452 02.38715170084918
0 COSMOS 2251 DEB
1 33759U 93036G   19035.89536088 +.00000931 +00000-0 +24946-3 0  9994
2 33759 074.0204 105.6349 0016986 094.6360 022.5669 14.49548035524905
0 COSMOS 2251 DEB
1 33760U 93036H   19035.89656712 +.00000000 +00000-0 +93902-5 0  9990
2 33760 074.0316 187.0530 0020762 177.7236 299.9487 14.34227884522321
0 COSMOS 2251 DEB
1 33761U 93036J   19035.82310538 +.00000156 +00000-0 +61873-4 0  9990
2 33761 074.0383 181.8947 0024934 159.1903 319.2068 14.36374842522555
0 COSMOS 2251 DEB
1 33761U 93036J   19036.59067991  .00000152  00000-0  60672-4 0  9999
2 33761  74.0383 180.4850 0024895 157.5995 328.2903 14.36375122522754
0 COSMOS 2251 DEB
1 33762U 93036K   19035.90951778 -.00000020 +00000-0 +22280-5 0  9998
2 33762 074.0404 201.9162 0015080 162.7088 312.9307 14.32956583521929
0 COSMOS 2251 DEB
1 33763U 93036L   19035.88292182 +.00001709 +00000-0 +36795-3 0  9991
2 33763 073.9356 043.2421 0013323 013.5166 056.9142 14.59260035525944
0 COSMOS 2251 DEB
1 33763U 93036L   19036.15720649  .00001706  00000-0  36729-3 0  9990
2 33763  73.9356  42.7161 0013342  12.9064  57.8469 14.59260960526030
0 COSMOS 2251 DEB
1 33764U 93036M   19036.83602034  .00000093  00000-0  41738-4 0  9998
2 33764  74.0347 187.9992 0024188  40.3787  30.9525 14.35026413522481
0 COSMOS 2251 DEB
1 33764U 93036M   19035.87567413 +.00000095 +00000-0 +42235-4 0  9997
2 33764 074.0346 189.7594 0024165 042.4616 109.6235 14.35026213522230
0 COSMOS 2251 DEB
1 33765U 93036N   19035.95332951 +.00001103 +00000-0 +19950-3 0  9992
2 33765 074.0198 352.9206 0161171 353.5718 064.4494 14.59624683528454
0 COSMOS 2251 DEB
1 33766U 93036P   19035.89776206 +.00000165 +00000-0 +73300-4 0  9998
2 33766 074.1910 325.9109 0069507 155.9198 204.5229 14.28663417519598
0 COSMOS 2251 DEB
1 33770U 93036T   19035.60155969 +.00000883 +00000-0 +20399-3 0  9995
2 33770 074.0320 061.7079 0034410 044.6700 098.4670 14.56388637525738
0 IRIDIUM 33 DEB
1 33772U 97051K   19035.92442626 +.00007156 +00000-0 +76041-3 0  9997
2 33772 086.4018 012.4943 0024845 155.3376 260.0766 14.88642231527838
0 IRIDIUM 33 DEB
1 33772U 97051K   19036.47549785  .00008174  00000-0  86860-3 0  9993
2 33772  86.4021  12.2435 0024920 153.4082 333.3068 14.88651581528000
0 IRIDIUM 33 DEB
1 33773U 97051L   19035.91861467 +.00000166 +00000-0 +47784-4 0  9992
2 33773 086.4010 034.3448 0013595 106.3509 253.9185 14.38337743523373
0 IRIDIUM 33 DEB
1 33775U 97051N   19035.90922345 +.00000279 +00000-0 +90729-4 0  9998
2 33775 086.3675 028.6754 0017496 083.4841 342.4424 14.35015113522027
0 IRIDIUM 33 DEB
1 33777U 97051Q   19035.92919402 +.00000306 +00000-0 +88041-4 0  9997
2 33777 086.3864 023.9550 0007670 297.2669 062.7749 14.41567615523857
0 IRIDIUM 33 DEB
1 33777U 97051Q   19036.06802011  .00000308  00000-0  88796-4 0  9999
2 33777  86.3864  23.8961 0007664 296.7309  63.3106 14.41567712523953
0 COSMOS 2251 DEB
1 33779U 93036U   19035.84847762 +.00000100 +00000-0 +38640-4 0  9990
2 33779 074.0485 174.0978 0030812 120.8816 000.7091 14.41364657522956
0 COSMOS 2251 DEB
1 33782U 93036X   19035.88583637 +.00000151 +00000-0 +62059-4 0  9993
2 33782 074.0346 195.6634 0022392 156.1560 354.8380 14.34855937521890
0 COSMOS 2251 DEB
1 33785U 93036AA  19035.82338727 +.00000637 +00000-0 +20368-3 0  9993
2 33785 073.8823 111.5414 0033093 219.5349 260.8224 14.41403837522746
0 COSMOS 2251 DEB
1 33785U 93036AA  19036.57671505  .00000644  00000-0  20604-3 0  9991
2 33785  73.8823 110.1332 0033086 218.0959 209.7596 14.41404865522974
0 COSMOS 2251 DEB
1 33789U 93036AE  19035.95371102 +.00000112 +00000-0 +93687-4 0  9998
2 33789 074.0668 358.0316 0249148 332.4511 079.9839 13.85376886504106
0 COSMOS 2251 DEB
1 33789U 93036AE  19036.32674823  .00000116  00000-0  96750-4 0  9994
2 33789  74.0668 357.4021 0249158 331.7378 140.4515 13.85377019504223
0 COSMOS 2251 DEB
1 33791U 93036AG  19035.79280865 +.00000348 +00000-0 +13376-3 0  9995
2 33791 074.1772 274.4101 0033564 091.0949 337.0595 14.33630836521204
0 COSMOS 2251 DEB
1 33792U 93036AH  19035.96127638 +.00000049 +00000-0 +68309-4 0  9998
2 33792 073.9024 005.2269 0440652 156.1007 264.3034 13.42183089488355
0 COSMOS 2251 DEB
1 33795U 93036AL  19035.85615125 +.00000328 +00000-0 +64502-4 0  9993
2 33795 074.0458 274.9283 0077143 290.4576 149.5422 14.65222262531577
0 COSMOS 2251 DEB
1 33797U 93036AN  19035.50222568 +.00000214 +00000-0 +62276-4 0  9992
2 33797 074.0490 060.2652 0071524 061.2301 054.5891 14.48634968526769
0 COSMOS 2251 DEB
1 33798U 93036AP  19035.35145740 +.00000060 +00000-0 +25365-4 0  9999
2 33798 074.0301 104.6346 0093955 119.4294 359.5701 14.42057689524908
0 COSMOS 2251 DEB
1 33798U 93036AP  19036.24116620  .00000055  00000-0  23819-4 0  9999
2 33798  74.0300 102.9844 0093935 117.5393 298.4340 14.42057800525173
0 COSMOS 2251 DEB
1 33799U 93036AQ  19035.66395622 +.00000586 +00000-0 +17188-3 0  9996
2 33799 074.0425 124.9297 0042682 103.8967 046.9039 14.45552306524530
0 COSMOS 2251 DEB
1 33799U 93036AQ  19036.61715487  .00000553  00000-0  16239-3 0  9997
2 33799  74.0425 123.1533 0042613 101.8146 327.4076 14.45553184524774
0 COSMOS 2251 DEB
1 33804U 93036AV  19035.87687058 +.00001458 +00000-0 +19644-3 0  9991
2 33804 074.0197 205.4046 0053078 232.8161 126.8163 14.79265808533564
0 COSMOS 2251 DEB
1 33805U 93036AW  19035.93392393 +.00000099 +00000-0 +30554-4 0  9998
2 33805 074.0339 001.6293 0065206 095.3467 265.5139 14.52356330528559
0 COSMOS 2251 DEB
1 33806U 93036AX  19035.96637539 +.00001006 +00000-0 +17805-3 0  9998
2 33806 074.0862 331.4638 0059989 279.2280 151.4123 14.67612536530373
0 COSMOS 2251 DEB
1 33812U 93036BD  19035.72630240 +.00002401 +00000-0 +13447-3 0  9999
2 33812 074.0136 117.1508 0114273 079.3532 282.0504 15.08617435536162
0 COSMOS 2251 DEB
1 33812U 93036BD  19036.19050070  .00002614  00000-0  14614-3 0  9991
2 33812  74.0134 116.1933 0114303  78.2609 283.1379 15.08620834536291
0 COSMOS 2251 DEB
1 33813U 93036BE  19035.88842279 +.00000626 +00000-0 +95875-4 0  9997
2 33813 074.0467 206.7488 0095231 208.5937 309.7446 14.73080361533802
0 COSMOS 2251 DEB
1 33813U 93036BE  19036.62839708  .00000615  00000-0  94371-4 0  9991
2 33813  74.0468 205.3079 0095198 206.9740 273.8815 14.73081328533984
0 COSMOS 2251 DEB
1 33815U 93036BG  19036.53789576  .00000960  00000-0  32282-3 0  9995
2 33815  73.9860 216.5438 0058206 158.5268 256.5924 14.37504574520954
0 COSMOS 2251 DEB
1 33815U 93036BG  19035.92296340 +.00000950 +00000-0 +31958-3 0  9997
2 33815 073.9860 217.6788 0058247 159.7688 314.3428 14.37503251520805
0 COSMOS 2251 DEB
1 33816U 93036BH  19035.68905107 +.00000111 +00000-0 +99696-4 0  9992
2 33816 073.8983 010.1272 0274493 134.2385 228.1633 13.78199536501620
0 COSMOS 2251 DEB
1 33816U 93036BH  19036.34233277  .00000120  00000-0  10630-3 0  9998
2 33816  73.8984   9.0266 0274480 133.0098 229.4383 13.78199751501776
0 COSMOS 2251 DEB
1 33817U 93036BJ  19035.85302533 +.00000603 +00000-0 +10683-3 0  9990
2 33817 074.0696 276.1078 0058209 291.8260 067.6724 14.68663346531995
0 COSMOS 2251 DEB
1 33818U 93036BK  19035.91356674 +.00000529 +00000-0 +10819-3 0  9991
2 33818 074.1035 333.5658 0075042 290.1116 128.9829 14.61818341530493
0 COSMOS 2251 DEB
1 33818U 93036BK  19036.26658564  .00000544  00000-0  11093-3 0  9995
2 33818  74.1035 332.8929 0075039 289.3637 186.7406 14.61818835530547
0 COSMOS 2251 DEB
1 33819U 93036BL  19036.23526403  .00000185  00000-0  86568-4 0  9990
2 33819  74.1830  13.3929 0100618 212.0562 259.1225 14.24191944518133
0 COSMOS 2251 DEB
1 33819U 93036BL  19035.94561062 +.00000178 +00000-0 +83398-4 0  9997
2 33819 074.1829 013.9100 0100626 212.6484 214.0479 14.24191765518093
0 COSMOS 2251 DEB
1 33821U 93036BN  19035.91316238 +.00000369 +00000-0 +45902-4 0  9991
2 33821 074.0531 109.9253 0125677 099.8448 015.6499 14.81142343377190
0 COSMOS 2251 DEB
1 33821U 93036BN  19036.24015473  .00000369  00000-0  45877-4 0  9996
2 33821  74.0531 109.2805 0125669  99.1067 319.2165 14.81142628537150
0 COSMOS 2251 DEB
1 33822U 93036BP  19035.94735135 +.00000496 +00000-0 +29949-3 0  9999
2 33822 074.0777 228.2427 0181333 161.6670 315.4589 14.01181288509165
0 COSMOS 2251 DEB
1 33823U 93036BQ  19035.83198743 +.00000232 +00000-0 +15962-3 0  9994
2 33823 073.8125 187.8848 0221797 023.5456 091.4414 13.93497462507030
0 COSMOS 2251 DEB
1 33823U 93036BQ  19036.53994873  .00000221  00000-0  15274-3 0  9994
2 33823  73.8125 186.6555 0221812  22.1895  42.9991 13.93497782507207
0 COSMOS 2251 DEB
1 33824U 93036BR  19035.92164986 +.00000431 +00000-0 +81193-4 0  9998
2 33824 074.0232 307.6552 0089354 312.3049 122.4611 14.65436234530237
